NORAD_CAT_ID,OBJECT_NAME,OBJECT_TYPE,EPOCH,MEAN_MOTION,ECCENTRICITY,INCLINATION,RA_OF_ASC_NODE,ARG_OF_PERICENTER,MEAN_ANOMALY,BSTAR,MEAN_MOTION_DOT,MEAN_MOTION_DDOT,TLE_LINE0,TLE_LINE1,TLE_LINE2,SEMIMAJOR_AXIS,PERIOD,APOGEE,PERIGEE,DECAYED
55747.0,STARLINK-5539,PAYLOAD,2023-11-04 22:15:58,14.98326234,0.0002924,70.0006,242.1997,270.7222,89.3602,2.5138e-05,2.07e-06,0.0,0 STARLINK-5539,1 55747U 23028G   23308.92776175  .00000207  00000-0  25138-4 0  9995,2 55747  70.0006 242.1997 0002924 270.7222  89.3602 14.98326234 37859,6950.205,96.107,574.102,570.037,0.0
55747.0,STARLINK-5539,PAYLOAD,2023-11-05 04:40:29,14.98339732,0.0002881,70.0004,241.5262,276.4618,83.6213,0.00017021,1.939e-05,0.0,0 STARLINK-5539,1 55747U 23028G   23309.19479006  .00001939  00000-0  17021-3 0  9992,2 55747  70.0004 241.5262 0002881 276.4618  83.6213 14.98339732 37895,6950.163,96.106,574.03,570.025,0.0
55747.0,STARLINK-5539,PAYLOAD,2023-11-05 12:41:10,14.98337863,0.0002604,70.0007,240.6845,278.932,81.1545,0.00010273,1.133e-05,0.0,0 STARLINK-5539,1 55747U 23028G   23309.52859168  .00001133  00000-0  10273-3 0  9998,2 55747  70.0007 240.6845 0002604 278.9320  81.1545 14.98337863 37945,6950.169,96.106,573.843,570.224,0.0
55747.0,STARLINK-5539,PAYLOAD,2023-11-05 22:17:57,14.98352638,0.0002428,69.9998,239.6741,242.4005,117.6908,0.00028914,3.361e-05,0.0,0 STARLINK-5539,1 55747U 23028G   23309.92913426  .00003361  00000-0  28914-3 0  9996,2 55747  69.9998 239.6741 0002428 242.4005 117.6908 14.98352638 38007,6950.123,96.106,573.675,570.3,0.0
55747.0,STARLINK-5539,PAYLOAD,2023-11-06 06:18:36,14.98360003,0.0002636,70.0003,238.8327,275.4369,84.6489,0.00057797,6.815e-05,0.0,0 STARLINK-5539,1 55747U 23028G   23310.26291982  .00006815  00000-0  57797-3 0  9999,2 55747  70.0003 238.8327 0002636 275.4369  84.6489 14.98360003 38055,6950.1,96.105,573.797,570.133,0.0
55747.0,STARLINK-5539,PAYLOAD,2023-11-06 12:43:10,14.98357581,0.0002579,70.0002,238.1596,271.1117,88.9746,-0.00040354,-4.908e-05,0.0,0 STARLINK-5539,1 55747U 23028G   23310.52997863 -.00004908  00000-0 -40354-3 0  9993,2 55747  70.0002 238.1596 0002579 271.1117  88.9746 14.98357581 38099,6950.108,96.105,573.765,570.18,0.0
55747.0,STARLINK-5539,PAYLOAD,2023-11-06 22:20:02,14.98295628,0.0002924,70.0007,237.1503,262.5947,97.488,-0.00033501,-4.084e-05,0.0,0 STARLINK-5539,1 55747U 23028G   23310.93058081 -.00004084  00000-0 -33501-3 0  9999,2 55747  70.0007 237.1503 0002924 262.5947  97.4880 14.98295628 38154,6950.299,96.109,574.196,570.132,0.0
55747.0,STARLINK-5539,PAYLOAD,2023-11-07 03:08:26,14.98305381,0.0002637,70.001,236.6469,240.2804,119.8093,-0.00031656,-3.865e-05,0.0,0 STARLINK-5539,1 55747U 23028G   23311.13085692 -.00003865  00000-0 -31656-3 0  9995,2 55747  70.0010 236.6469 0002637 240.2804 119.8093 14.98305381 38185,6950.269,96.109,573.967,570.301,0.0
55747.0,STARLINK-5539,PAYLOAD,2023-11-07 12:45:13,14.98316804,0.0002294,70.003,235.6385,257.7531,102.3372,-8.6216e-05,-1.121e-05,0.0,0 STARLINK-5539,1 55747U 23028G   23311.53140894 -.00001121  00000-0 -86216-4 0  9991,2 55747  70.0030 235.6385 0002294 257.7531 102.3372 14.98316804 38248,6950.234,96.108,573.693,570.504,0.0
55747.0,STARLINK-5539,PAYLOAD,2023-11-07 19:09:45,14.9832283,0.0002928,70.0023,234.9654,265.8109,94.2716,-0.00015637,-1.958e-05,0.0,0 STARLINK-5539,1 55747U 23028G   23311.79844632 -.00001958  00000-0 -15637-3 0  9996,2 55747  70.0023 234.9654 0002928 265.8109  94.2716 14.98322830 38287,6950.215,96.107,574.115,570.045,0.0
55747.0,STARLINK-5539,PAYLOAD,2023-11-08 03:10:23,14.98362727,0.0003106,70.0017,234.1253,230.7627,129.3257,0.00011768,1.313e-05,0.0,0 STARLINK-5539,1 55747U 23028G   23312.13221402  .00001313  00000-0  11768-3 0  9993,2 55747  70.0017 234.1253 0003106 230.7627 129.3257 14.98362727 38337,6950.092,96.105,574.115,569.798,0.0
55747.0,STARLINK-5539,PAYLOAD,2023-11-08 04:46:33,14.98338241,0.0002475,70.0013,233.9562,245.2441,114.846,-0.00011848,-1.507e-05,0.0,0 STARLINK-5539,1 55747U 23028G   23312.19899578 -.00001507  00000-0 -11848-3 0  9990,2 55747  70.0013 233.9562 0002475 245.2441 114.8460 14.98338241 38346,6950.167,96.106,573.753,570.312,0.0
55747.0,STARLINK-5539,PAYLOAD,2023-11-08 19:11:46,14.98311612,0.0002693,70.001,232.4416,254.0652,106.021,0.00038596,4.513e-05,0.0,0 STARLINK-5539,1 55747U 23028G   23312.79983929  .00004513  00000-0  38596-3 0  9997,2 55747  70.0010 232.4416 0002693 254.0652 106.0210 14.98311612 38438,6950.25,96.108,573.986,570.243,0.0
55747.0,STARLINK-5539,PAYLOAD,2023-11-08 20:47:54,14.98310795,0.0002773,70.001,232.2731,254.1017,105.9837,0.00041826,4.899e-05,0.0,0 STARLINK-5539,1 55747U 23028G   23312.86659963  .00004899  00000-0  41826-3 0  9990,2 55747  70.0010 232.2731 0002773 254.1017 105.9837 14.98310795 38446,6950.252,96.108,574.045,570.19,0.0
55747.0,STARLINK-5539,PAYLOAD,2023-11-09 03:12:25,14.98335735,0.0002345,70.0023,231.6019,257.7927,102.2969,0.00069302,8.187e-05,0.0,0 STARLINK-5539,1 55747U 23028G   23313.13362309  .00008187  00000-0  69302-3 0  9999,2 55747  70.0023 231.6019 0002345 257.7927 102.2969 14.98335735 38487,6950.175,96.107,573.67,570.41,0.0
55747.0,STARLINK-5539,PAYLOAD,2023-11-09 04:48:34,14.983131,0.0002349,70.0018,231.4321,256.6111,103.4787,0.00042045,4.925e-05,0.0,0 STARLINK-5539,1 55747U 23028G   23313.20040330  .00004925  00000-0  42045-3 0  9995,2 55747  70.0018 231.4321 0002349 256.6111 103.4787 14.98313100 38496,6950.245,96.108,573.743,570.478,0.0
55747.0,STARLINK-5539,PAYLOAD,2023-11-09 19:13:46,14.98342066,0.0002665,70.0014,229.9184,252.93,107.1567,0.00025382,2.938e-05,0.0,0 STARLINK-5539,1 55747U 23028G   23313.80123055  .00002938  00000-0  25382-3 0  9994,2 55747  70.0014 229.9184 0002665 252.9300 107.1567 14.98342066 38581,6950.156,96.106,573.873,570.168,0.0
55747.0,STARLINK-5539,PAYLOAD,2023-11-09 22:26:03,14.98329976,0.0002928,70.0008,229.5814,252.5289,107.555,0.00018058,2.062e-05,0.0,0 STARLINK-5539,1 55747U 23028G   23313.93475836  .00002062  00000-0  18058-3 0  9995,2 55747  70.0008 229.5814 0002928 252.5289 107.5550 14.98329976 38608,6950.193,96.107,574.093,570.023,0.0
55747.0,STARLINK-5539,PAYLOAD,2023-11-10 03:14:28,14.98320803,0.0002742,69.9999,229.0748,246.4223,113.6648,-9.949e-05,-1.28e-05,0.0,0 STARLINK-5539,1 55747U 23028G   23314.13505140 -.00001280  00000-0 -99490-4 0  9993,2 55747  69.9999 229.0748 0002742 246.4223 113.6648 14.98320803 38638,6950.221,96.108,573.992,570.181,0.0
55747.0,STARLINK-5539,PAYLOAD,2023-11-10 11:15:09,14.98348184,0.0002342,70.002,228.2326,257.56,102.5297,-0.0010079,-0.00012103,0.0,0 STARLINK-5539,1 55747U 23028G   23314.46885630 -.00012103  00000-0 -10079-2 0  9994,2 55747  70.0020 228.2326 0002342 257.5600 102.5297 14.98348184 38681,6950.137,96.106,573.629,570.374,0.0
55747.0,STARLINK-5539,PAYLOAD,2023-11-10 19:15:50,14.98304215,0.0002478,70.0023,227.3885,242.4206,117.6702,-0.00017333,-2.159e-05,0.0,0 STARLINK-5539,1 55747U 23028G   23314.80266927 -.00002159  00000-0 -17333-3 0  9995,2 55747  70.0023 227.3885 0002478 242.4206 117.6702 14.98304215 38730,6950.273,96.109,573.86,570.415,0.0
55747.0,STARLINK-5539,PAYLOAD,2023-11-11 03:16:29,14.98327517,0.0002588,70.0004,226.5474,249.9774,110.1106,2.4027e-05,1.94e-06,0.0,0 STARLINK-5539,1 55747U 23028G   23315.13645230  .00000194  00000-0  24027-4 0  9994,2 55747  70.0004 226.5474 0002588 249.9774 110.1106 14.98327517 38789,6950.201,96.107,573.864,570.267,0.0
55747.0,STARLINK-5539,PAYLOAD,2023-11-11 04:52:37,14.98329838,0.0002458,70.0004,226.3786,257.0732,103.0153,5.8992e-05,6.11e-06,0.0,0 STARLINK-5539,1 55747U 23028G   23315.20321100  .00000611  00000-0  58992-4 0  9991,2 55747  70.0004 226.3786 0002458 257.0732 103.0153 14.98329838 38795,6950.193,96.107,573.767,570.35,0.0
55747.0,STARLINK-5539,PAYLOAD,2023-11-11 19:17:49,14.98337104,0.000285,69.9995,224.8638,265.8045,94.2789,0.00011037,1.224e-05,0.0,0 STARLINK-5539,1 55747U 23028G   23315.80404275  .00001224  00000-0  11037-3 0  9991,2 55747  69.9995 224.8638 0002850 265.8045  94.2789 14.98337104 38881,6950.171,96.107,574.017,570.055,0.0
55747.0,STARLINK-5539,PAYLOAD,2023-11-11 20:53:57,14.98336923,0.0002898,69.9993,224.6942,268.4904,91.5923,0.00012933,1.451e-05,0.0,0 STARLINK-5539,1 55747U 23028G   23315.87080182  .00001451  00000-0  12933-3 0  9993,2 55747  69.9993 224.6942 0002898 268.4904  91.5923 14.98336923 38899,6950.171,96.107,574.051,570.022,0.0
55747.0,STARLINK-5539,PAYLOAD,2023-11-12 04:54:36,14.98343977,0.000264,69.9996,223.8527,260.714,99.372,0.00020802,2.391e-05,0.0,0 STARLINK-5539,1 55747U 23028G   23316.20459349  .00002391  00000-0  20802-3 0  9994,2 55747  69.9996 223.8527 0002640 260.7140  99.3720 14.98343977 38948,6950.15,96.106,573.85,570.18,0.0
55747.0,STARLINK-5539,PAYLOAD,2023-11-12 19:19:50,14.98323699,0.0002499,70.001,222.3372,260.0001,100.0876,0.00033455,3.9e-05,0.0,0 STARLINK-5539,1 55747U 23028G   23316.80544242  .00003900  00000-0  33455-3 0  9992,2 55747  70.0010 222.3372 0002499 260.0001 100.0876 14.98323699 39033,6950.212,96.107,573.814,570.341,0.0
55747.0,STARLINK-5539,PAYLOAD,2023-11-12 22:32:06,14.98325824,0.0002399,70.0008,222.0021,254.0217,106.0678,0.00026944,3.123e-05,0.0,0 STARLINK-5539,1 55747U 23028G   23316.93896296  .00003123  00000-0  26944-3 0  9997,2 55747  70.0008 222.0021 0002399 254.0217 106.0678 14.98325824 39059,6950.206,96.107,573.738,570.403,0.0
55747.0,STARLINK-5539,PAYLOAD,2023-11-13 11:21:10,14.98334345,0.0002416,70.0016,220.655,272.5436,87.5447,1.3783e-06,-7.6e-07,0.0,0 STARLINK-5539,1 55747U 23028G   23317.47304380 -.00000076  00000-0  13783-5 0  9999,2 55747  70.0016 220.6550 0002416 272.5436  87.5447 14.98334345 39131,6950.179,96.107,573.724,570.365,0.0
55747.0,STARLINK-5539,PAYLOAD,2023-11-14 03:22:31,14.98332125,0.0002408,70.0011,218.972,264.3969,95.6916,-7.5325e-05,-9.92e-06,0.0,0 STARLINK-5539,1 55747U 23028G   23318.14064347 -.00000992  00000-0 -75325-4 0  9997,2 55747  70.0011 218.9720 0002408 264.3969  95.6916 14.98332125 39232,6950.186,96.107,573.725,570.378,0.0
